CCSDS_OMM_VERS,COMMENT,CREATION_DATE,ORIGINATOR,OBJECT_NAME,OBJECT_ID,CENTER_NAME,REF_FRAME,TIME_SYSTEM,MEAN_ELEMENT_THEORY,EPOCH,MEAN_MOTION,ECCENTRICITY,INCLINATION,RA_OF_ASC_NODE,ARG_OF_PERICENTER,MEAN_ANOMALY,EPHEMERIS_TYPE,CLASSIFICATION_TYPE,NORAD_CAT_ID,ELEMENT_SET_NO,REV_AT_EPOCH,BSTAR,MEAN_MOTION_DOT,MEAN_MOTION_DDOT,SEMIMAJOR_AXIS,PERIOD,APOAPSIS,PERIAPSIS,OBJECT_TYPE,RCS_SIZE,COUNTRY_CODE,LAUNCH_DATE,SITE,DECAY_DATE,FILE,GP_ID,TLE_LINE0,TLE_LINE1,TLE_LINE2
"2.0","GENERATED VIA SPACE-TRACK.ORG API","2020-07-21T17:23:58","18 SPCS","COSMOS 1867","1987-060A","EARTH","TEME","UTC","SGP4","2020-07-21T10:05:44.681856","14.31112830","0.00137530","65.0116","305.6678","273.4914","86.4597","0","U","18187","999","72550","0.00001284900000","-0.00000066","0.0000000000000","7166.150","100.620","797.871","778.159","PAYLOAD","LARGE","CIS","1987-07-10","TTMTR","","2788883","157951740","0 COSMOS 1867","1 18187U 87060A   20203.42065604 -.00000066 +00000-0 +12849-4 0  9991","2 18187 065.0116 305.6678 0013753 273.4914 086.4597 14.31112830725502"
"2.0","GENERATED VIA SPACE-TRACK.ORG API","2020-07-21T10:56:09","18 SPCS","COSMOS 1867","1987-060A","EARTH","TEME","UTC","SGP4","2020-07-21T08:25:06.998016","14.31112823","0.00137530","65.0116","305.8634","273.4833","86.4678","0","U","18187","999","72572","0.00001242600000","-0.00000067","0.0000000000000","7166.150","100.620","797.871","778.159","PAYLOAD","LARGE","CIS","1987-07-10","TTMTR","","2788756","157942106","0 COSMOS 1867","1 18187U 87060A   20203.35077544 -.00000067  00000-0  12426-4 0  9991","2 18187  65.0116 305.8634 0013753 273.4833  86.4678 14.31112823725722"
"2.0","GENERATED VIA SPACE-TRACK.ORG API","2020-07-21T17:23:58","18 SPCS","IRIDIUM 153","2017-083J","EARTH","TEME","UTC","SGP4","2020-07-21T06:15:27.596448","14.34216854","0.00012520","86.3978","111.8641","78.5577","281.5759","0","U","43078","999","13612","0.00002267200000","0.00000083","0.0000000000000","7155.807","100.403","778.568","776.776","PAYLOAD","LARGE","US","2017-12-23","AFWTR","","2788883","157964039","0 IRIDIUM 153","1 43078U 17083J   20203.26073607 +.00000083 +00000-0 +22672-4 0  9993","2 43078 086.3978 111.8641 0001252 078.5577 281.5759 14.34216854136124"
"2.0","GENERATED VIA SPACE-TRACK.ORG API","2020-07-21T03:35:23","18 SPCS","IRIDIUM 153","2017-083J","EARTH","TEME","UTC","SGP4","2020-07-20T20:12:39.575808","14.34216757","0.00012580","86.3978","112.0390","77.4653","282.6684","0","U","43078","999","13606","0.00001889700000","0.00000073","0.0000000000000","7155.807","100.403","778.572","776.772","PAYLOAD","LARGE","US","2017-12-23","AFWTR","","2788583","157915877","0 IRIDIUM 153","1 43078U 17083J   20202.84212472 +.00000073 +00000-0 +18897-4 0  9994","2 43078 086.3978 112.0390 0001258 077.4653 282.6684 14.34216757136061"
"2.0","GENERATED VIA SPACE-TRACK.ORG API","2020-07-20T22:16:10","18 SPCS","IRIDIUM 153","2017-083J","EARTH","TEME","UTC","SGP4","2020-07-20T18:32:11.572224","14.34216757","0.00012600","86.3978","112.0681","77.2651","282.8686","0","U","43078","999","13605","0.00001897200000","0.00000073","0.0000000000000","7155.807","100.403","778.574","776.770","PAYLOAD","LARGE","US","2017-12-23","AFWTR","","2788403","157894063","0 IRIDIUM 153","1 43078U 17083J   20202.77235616  .00000073  00000-0  18972-4 0  9995","2 43078  86.3978 112.0681 0001260  77.2651 282.8686 14.34216757136056"
"2.0","GENERATED VIA SPACE-TRACK.ORG API","2020-07-21T03:35:23","18 SPCS","COSMOS 1867","1987-060A","EARTH","TEME","UTC","SGP4","2020-07-20T15:38:50.157024","14.31112741","0.00137500","65.0116","307.8191","273.4391","86.5121","0","U","18187","999","72539","0.00000831580000","-0.00000078","0.0000000000000","7166.150","100.621","797.869","778.162","PAYLOAD","LARGE","CIS","1987-07-10","TTMTR","","2788583","157903063","0 COSMOS 1867","1 18187U 87060A   20202.65196941 -.00000078 +00000-0 +83158-5 0  9999","2 18187 065.0116 307.8191 0013750 273.4391 086.5121 14.31112741725394"
"2.0","GENERATED VIA SPACE-TRACK.ORG API","2020-07-20T18:30:20","18 SPCS","COSMOS 1867","1987-060A","EARTH","TEME","UTC","SGP4","2020-07-20T13:58:12.470592","14.31112743","0.00137500","65.0116","308.0147","273.4142","86.5369","0","U","18187","999","72538","0.00000738370000","-0.00000081","0.0000000000000","7166.150","100.621","797.869","778.162","PAYLOAD","LARGE","CIS","1987-07-10","TTMTR","","2788378","157879071","0 COSMOS 1867","1 18187U 87060A   20202.58208878 -.00000081 +00000-0 +73837-5 0  9991","2 18187 065.0116 308.0147 0013750 273.4142 086.5369 14.31112743725387"
"2.0","GENERATED VIA SPACE-TRACK.ORG API","2020-07-20T18:30:20","18 SPCS","IRIDIUM 153","2017-083J","EARTH","TEME","UTC","SGP4","2020-07-20T06:48:55.537632","14.34216762","0.00012560","86.3979","112.2722","75.9314","284.2021","0","U","43078","999","13598","0.00002104900000","0.00000079","0.0000000000000","7155.807","100.403","778.571","776.773","PAYLOAD","LARGE","US","2017-12-23","AFWTR","","2788378","157892363","0 IRIDIUM 153","1 43078U 17083J   20202.28397613 +.00000079 +00000-0 +21049-4 0  9992","2 43078 086.3979 112.2722 0001256 075.9314 284.2021 14.34216762135987"
"2.0","GENERATED VIA SPACE-TRACK.ORG API","2020-07-20T06:26:09","18 SPCS","COSMOS 1867","1987-060A","EARTH","TEME","UTC","SGP4","2020-07-20T02:13:48.675936","14.31112721","0.00137510","65.0117","309.3837","273.3901","86.5610","0","U","18187","999","72554","0.00000377930000","-0.00000090","0.0000000000000","7166.150","100.621","797.870","778.161","PAYLOAD","LARGE","CIS","1987-07-10","TTMTR","","2788017","157865243","0 COSMOS 1867","1 18187U 87060A   20202.09292449 -.00000090  00000-0  37793-5 0  9995","2 18187  65.0117 309.3837 0013751 273.3901  86.5610 14.31112721725544"
"2.0","GENERATED VIA SPACE-TRACK.ORG API","2020-07-20T02:00:18","18 SPCS","IRIDIUM 153","2017-083J","EARTH","TEME","UTC","SGP4","2020-07-19T19:05:39.514272","14.34216632","0.00012670","86.3979","112.4763","74.6968","285.4368","0","U","43078","999","13591","0.00001627700000","0.00000065","0.0000000000000","7155.807","100.403","778.579","776.766","PAYLOAD","LARGE","US","2017-12-23","AFWTR","","2787997","157861021","0 IRIDIUM 153","1 43078U 17083J   20201.79559623 +.00000065 +00000-0 +16277-4 0  9990","2 43078 086.3979 112.4763 0001267 074.6968 285.4368 14.34216632135913"
"2.0","GENERATED VIA SPACE-TRACK.ORG API","2020-07-20T02:00:18","18 SPCS","COSMOS 1867","1987-060A","EARTH","TEME","UTC","SGP4","2020-07-19T16:10:02.564256","14.31112722","0.00137520","65.0117","310.5571","273.3532","86.5979","0","U","18187","999","72525","0.00000157810000","-0.00000096","0.0000000000000","7166.150","100.621","797.870","778.160","PAYLOAD","LARGE","CIS","1987-07-10","TTMTR","","2787997","157850692","0 COSMOS 1867","1 18187U 87060A   20201.67364079 -.00000096 +00000-0 +15781-5 0  9996","2 18187 065.0117 310.5571 0013752 273.3532 086.5979 14.31112722725251"
"2.0","GENERATED VIA SPACE-TRACK.ORG API","2020-07-19T18:46:12","18 SPCS","COSMOS 1867","1987-060A","EARTH","TEME","UTC","SGP4","2020-07-19T14:29:24.874368","14.31112765","0.00137480","65.0117","310.7527","273.3099","86.6413","0","U","18187","999","72524","0.00000345070000","-0.00000091","0.0000000000000","7166.150","100.621","797.867","778.163","PAYLOAD","LARGE","CIS","1987-07-10","TTMTR","","2787838","157804764","0 COSMOS 1867","1 18187U 87060A   20201.60376012 -.00000091 +00000-0 +34507-5 0  9991","2 18187 065.0117 310.7527 0013748 273.3099 086.6413 14.31112765725247"
"2.0","GENERATED VIA SPACE-TRACK.ORG API","2020-07-19T18:46:12","18 SPCS","IRIDIUM 153","2017-083J","EARTH","TEME","UTC","SGP4","2020-07-19T12:23:47.492160","14.34216648","0.00012710","86.3980","112.5929","74.1133","286.0203","0","U","43078","999","13587","0.00001874700000","0.00000072","0.0000000000000","7155.807","100.403","778.582","776.763","PAYLOAD","LARGE","US","2017-12-23","AFWTR","","2787838","157817018","0 IRIDIUM 153","1 43078U 17083J   20201.51652190 +.00000072 +00000-0 +18747-4 0  9995","2 43078 086.3980 112.5929 0001271 074.1133 286.0203 14.34216648135871"
"2.0","GENERATED VIA SPACE-TRACK.ORG API","2020-07-19T14:16:09","18 SPCS","IRIDIUM 153","2017-083J","EARTH","TEME","UTC","SGP4","2020-07-19T07:22:23.475360","14.34216653","0.00012700","86.3980","112.6803","73.5758","286.5578","0","U","43078","999","13584","0.00001862200000","0.00000072","0.0000000000000","7155.807","100.403","778.581","776.764","PAYLOAD","LARGE","US","2017-12-23","AFWTR","","2787628","157795535","0 IRIDIUM 153","1 43078U 17083J   20201.30721615  .00000072  00000-0  18622-4 0  9993","2 43078  86.3980 112.6803 0001270  73.5758 286.5578 14.34216653135841"
"2.0","GENERATED VIA SPACE-TRACK.ORG API","2020-07-19T02:20:26","18 SPCS","IRIDIUM 153","2017-083J","EARTH","TEME","UTC","SGP4","2020-07-18T19:39:07.445952","14.34216585","0.00012850","86.3980","112.8844","72.5531","287.5806","0","U","43078","999","13577","0.00001645900000","0.00000066","0.0000000000000","7155.808","100.403","778.592","776.753","PAYLOAD","LARGE","US","2017-12-23","AFWTR","","2787455","157789946","0 IRIDIUM 153","1 43078U 17083J   20200.81883618 +.00000066 +00000-0 +16459-4 0  9999","2 43078 086.3980 112.8844 0001285 072.5531 287.5806 14.34216585135773"
"2.0","GENERATED VIA SPACE-TRACK.ORG API","2020-07-18T22:16:09","18 SPCS","COSMOS 1867","1987-060A","EARTH","TEME","UTC","SGP4","2020-07-18T18:21:52.657056","14.31112768","0.00137400","65.0118","313.0995","273.2570","86.6942","0","U","18187","999","72535","-0.00000056225000","-0.00000102","0.0000000000000","7166.150","100.621","797.861","778.169","PAYLOAD","LARGE","CIS","1987-07-10","TTMTR","","2787311","157767984","0 COSMOS 1867","1 18187U 87060A   20200.76519279 -.00000102  00000-0 -56225-6 0  9997","2 18187  65.0118 313.0995 0013740 273.2570  86.6942 14.31112768725350"
